{
    "CCSDS_OMM_VERS": "3.0",
    "COMMENT": "GENERATED VIA SPACE-TRACK.ORG API",
    "CREATION_DATE": "2025-11-23T21:08:43",
    "ORIGINATOR": "18 SPCS",
    "OBJECT_NAME": "QZS-6",
    "OBJECT_ID": "2025-023A",
    "CENTER_NAME": "EARTH",
    "REF_FRAME": "TEME",
    "TIME_SYSTEM": "UTC",
    "MEAN_ELEMENT_THEORY": "SGP4",
    "EPOCH": "2025-11-23T02:29:34.776672",
    "MEAN_MOTION": "1.00273895",
    "ECCENTRICITY": "0.00016736",
    "INCLINATION": "0.0307",
    "RA_OF_ASC_NODE": "293.1194",
    "ARG_OF_PERICENTER": "317.1712",
    "MEAN_ANOMALY": "299.9689",
    "EPHEMERIS_TYPE": "0",
    "CLASSIFICATION_TYPE": "U",
    "NORAD_CAT_ID": "62876",
    "ELEMENT_SET_NO": "999",
    "REV_AT_EPOCH": "289",
    "BSTAR": "0.00000000000000",
    "MEAN_MOTION_DOT": "-0.00000213",
    "MEAN_MOTION_DDOT": "0.0000000000000",
    "SEMIMAJOR_AXIS": "42164.141",
    "PERIOD": "1436.067",
    "APOAPSIS": "35793.062",
    "PERIAPSIS": "35778.949",
    "OBJECT_TYPE": "PAYLOAD",
    "RCS_SIZE": null,
    "COUNTRY_CODE": "JPN",
    "LAUNCH_DATE": "2025-02-02",
    "SITE": "TNSTA",
    "DECAY_DATE": null,
    "FILE": "4896238",
    "GP_ID": "303345690",
    "TLE_LINE0": "0 QZS-6",
    "TLE_LINE1": "1 62876U 25023A   25327.10387473 -.00000213  00000-0  00000-0 0  9990",
    "TLE_LINE2": "2 62876   0.0307 293.1194 0001674 317.1712 299.9689  1.00273895  2896"
}